start=new Date('2022-07-24T00:00:00.000Z').valueOf();
sats=[{"GP_ID":"208707549","COUNTRY_CODE":"US","SEMIMAJOR_AXIS":"6925.345","INCLINATION":"53.0549","OBJECT_ID":"2021-021AA","RCS_SIZE":"LARGE","NORAD_CAT_ID":"47884","ARG_OF_PERICENTER":"69.5160","OBJECT_NAME":"STARLINK-2343","DECAY_DATE":null,"CLASSIFICATION_TYPE":"U","OBJECT_TYPE":"PAYLOAD","ELEMENT_SET_NO":"999","LAUNCH_DATE":"2021-03-14","MEAN_MOTION":"15.06401290","BSTAR":"0.00026687000000","TIME_SYSTEM":"UTC","EPOCH":"2022-07-23T11:17:02.535072","SITE":"AFETR","REV_AT_EPOCH":"7630","FILE":"3520423","APOAPSIS":"548.251","REF_FRAME":"TEME","EPHEMERIS_TYPE":"0","CENTER_NAME":"EARTH","MEAN_MOTION_DDOT":"0.0000000000000","PERIAPSIS":"546.168","TLE_LINE1":"1 47884U 21021AA  22204.47016823  .00003696  00000-0  26687-3 0  9994","RA_OF_ASC_NODE":"110.7722","MEAN_ANOMALY":"290.5991","MEAN_ELEMENT_THEORY":"SGP4","PERIOD":"95.592","TLE_LINE2":"2 47884  53.0549 110.7722 0001504  69.5160 290.5991 15.06401290 76305","MEAN_MOTION_DOT":"0.00003696","ECCENTRICITY":"0.00015040"},{"INCLINATION":"53.0557","OBJECT_ID":"2021-021AB","RCS_SIZE":"LARGE","NORAD_CAT_ID":"47885","ARG_OF_PERICENTER":"77.4392","GP_ID":"208707294","COUNTRY_CODE":"US","SEMIMAJOR_AXIS":"6925.366","OBJECT_TYPE":"PAYLOAD","ELEMENT_SET_NO":"999","LAUNCH_DATE":"2021-03-14","OBJECT_NAME":"STARLINK-2344","DECAY_DATE":null,"CLASSIFICATION_TYPE":"U","FILE":"3520423","APOAPSIS":"548.192","REF_FRAME":"TEME","MEAN_MOTION":"15.06394245","BSTAR":"0.00023877000000","TIME_SYSTEM":"UTC","EPOCH":"2022-07-23T11:08:24.472032","REV_AT_EPOCH":"7639","SITE":"AFETR","MEAN_MOTION_DOT":"0.00003276","ECCENTRICITY":"0.00013880","EPHEMERIS_TYPE":"0","CENTER_NAME":"EARTH","MEAN_MOTION_DDOT":"0.0000000000000","PERIAPSIS":"546.270","RA_OF_ASC_NODE":"115.7956","TLE_LINE1":"1 47885U 21021AB  22204.46417213  .00003276  00000-0  23877-3 0  9994","MEAN_ANOMALY":"282.6752","MEAN_ELEMENT_THEORY":"SGP4","PERIOD":"95.593","TLE_LINE2":"2 47885  53.0557 115.7956 0001388  77.4392 282.6752 15.06394245 76391"},{"LAUNCH_DATE":"2021-03-14","OBJECT_TYPE":"PAYLOAD","ELEMENT_SET_NO":"999","DECAY_DATE":null,"OBJECT_NAME":"STARLINK-2345","CLASSIFICATION_TYPE":"U","INCLINATION":"53.0537","OBJECT_ID":"2021-021AC","NORAD_CAT_ID":"47886","RCS_SIZE":"LARGE","ARG_OF_PERICENTER":"60.1334","SEMIMAJOR_AXIS":"6925.385","GP_ID":"208736103","COUNTRY_CODE":"US","MEAN_MOTION_DOT":"0.00001851","ECCENTRICITY":"0.00014680","CENTER_NAME":"EARTH","PERIAPSIS":"546.234","MEAN_MOTION_DDOT":"0.0000000000000","EPHEMERIS_TYPE":"0","PERIOD":"95.593","MEAN_ELEMENT_THEORY":"SGP4","TLE_LINE2":"2 47886  53.0537 104.0113 0001468  60.1334 299.9800 15.06388025 76440","TLE_LINE1":"1 47886U 21021AC  22204.86225155  .00001851  00000-0  14317-3 0  9997","RA_OF_ASC_NODE":"104.0113","MEAN_ANOMALY":"299.9800","REF_FRAME":"TEME","APOAPSIS":"548.267","FILE":"3520602","BSTAR":"0.00014317000000","TIME_SYSTEM":"UTC","MEAN_MOTION":"15.06388025","REV_AT_EPOCH":"7644","SITE":"AFETR","EPOCH":"2022-07-23T20:41:38.533920"},{"OBJECT_ID":"2021-021AD","INCLINATION":"53.0537","ARG_OF_PERICENTER":"83.7762","NORAD_CAT_ID":"47887","RCS_SIZE":"LARGE","COUNTRY_CODE":"US","GP_ID":"208736355","SEMIMAJOR_AXIS":"6925.396","ELEMENT_SET_NO":"999","OBJECT_TYPE":"PAYLOAD","LAUNCH_DATE":"2021-03-14","OBJECT_NAME":"STARLINK-2346","DECAY_DATE":null,"CLASSIFICATION_TYPE":"U","FILE":"3520602","APOAPSIS":"548.300","REF_FRAME":"TEME","MEAN_MOTION":"15.06384635","BSTAR":"-0.00014207000000","TIME_SYSTEM":"UTC","EPOCH":"2022-07-23T21:16:49.885536","REV_AT_EPOCH":"7637","SITE":"AFETR","ECCENTRICITY":"0.00015010","MEAN_MOTION_DOT":"-0.00002396","EPHEMERIS_TYPE":"0","MEAN_MOTION_DDOT":"0.0000000000000","PERIAPSIS":"546.221","CENTER_NAME":"EARTH","MEAN_ANOMALY":"276.3397","TLE_LINE1":"1 47887U 21021AD  22204.88668849 -.00002396  00000-0 -14207-3 0  9996","RA_OF_ASC_NODE":"108.8790","TLE_LINE2":"2 47887  53.0537 108.8790 0001501  83.7762 276.3397 15.06384635 76373","PERIOD":"95.593","MEAN_ELEMENT_THEORY":"SGP4"},{"REV_AT_EPOCH":"7604","SITE":"AFETR","EPOCH":"2022-07-23T21:49:59.412288","TIME_SYSTEM":"UTC","BSTAR":"-0.00008076700000","MEAN_MOTION":"15.06383190","REF_FRAME":"TEME","FILE":"3520569","APOAPSIS":"548.472","MEAN_ELEMENT_THEORY":"SGP4","PERIOD":"95.593","TLE_LINE2":"2 47888  53.0542  98.7945 0001743  64.0561 296.0608 15.06383190 76049","TLE_LINE1":"1 47888U 21021AE  22204.90971542 -.00001484  00000-0 -80767-4 0  9999","RA_OF_ASC_NODE":"98.7945","MEAN_ANOMALY":"296.0608","CENTER_NAME":"EARTH","PERIAPSIS":"546.058","MEAN_MOTION_DDOT":"0.0000000000000","EPHEMERIS_TYPE":"0","MEAN_MOTION_DOT":"-0.00001484","ECCENTRICITY":"0.00017430","SEMIMAJOR_AXIS":"6925.400","GP_ID":"208714439","COUNTRY_CODE":"US","NORAD_CAT_ID":"47888","RCS_SIZE":"LARGE","ARG_OF_PERICENTER":"64.0561","INCLINATION":"53.0542","OBJECT_ID":"2021-021AE","CLASSIFICATION_TYPE":"U","DECAY_DATE":null,"OBJECT_NAME":"STARLINK-2348","LAUNCH_DATE":"2021-03-14","OBJECT_TYPE":"PAYLOAD","ELEMENT_SET_NO":"999"},{"TLE_LINE2":"2 47889  53.0551  98.7460 0001491  69.0960 291.0189 15.06390069 76042","MEAN_ELEMENT_THEORY":"SGP4","PERIOD":"95.593","MEAN_ANOMALY":"291.0189","TLE_LINE1":"1 47889U 21021AF  22204.92077105  .00000515  00000-0  53503-4 0  9994","RA_OF_ASC_NODE":"98.7460","PERIAPSIS":"546.211","MEAN_MOTION_DDOT":"0.0000000000000","CENTER_NAME":"EARTH","EPHEMERIS_TYPE":"0","ECCENTRICITY":"0.00014910","MEAN_MOTION_DOT":"0.00000515","SITE":"AFETR","REV_AT_EPOCH":"7604","EPOCH":"2022-07-23T22:05:54.618720","TIME_SYSTEM":"UTC","BSTAR":"0.00005350300000","MEAN_MOTION":"15.06390069","REF_FRAME":"TEME","FILE":"3520569","APOAPSIS":"548.277","CLASSIFICATION_TYPE":"U","DECAY_DATE":null,"OBJECT_NAME":"STARLINK-2349","LAUNCH_DATE":"2021-03-14","ELEMENT_SET_NO":"999","OBJECT_TYPE":"PAYLOAD","SEMIMAJOR_AXIS":"6925.379","COUNTRY_CODE":"US","GP_ID":"208714445","ARG_OF_PERICENTER":"69.0960","NORAD_CAT_ID":"47889","RCS_SIZE":"LARGE","OBJECT_ID":"2021-021AF","INCLINATION":"53.0551"},{"CLASSIFICATION_TYPE":"U","OBJECT_NAME":"STARLINK-2350","DECAY_DATE":null,"OBJECT_TYPE":"PAYLOAD","ELEMENT_SET_NO":"999","LAUNCH_DATE":"2021-03-14","GP_ID":"208735604","COUNTRY_CODE":"US","SEMIMAJOR_AXIS":"6817.885","RCS_SIZE":"LARGE","NORAD_CAT_ID":"47890","ARG_OF_PERICENTER":"37.0401","INCLINATION":"53.0536","OBJECT_ID":"2021-021AG","TLE_LINE1":"1 47890U 21021AG  22204.84538379  .00007487  00000-0  18135-3 0  9998","RA_OF_ASC_NODE":"41.7911","MEAN_ANOMALY":"323.0758","PERIOD":"93.376","MEAN_ELEMENT_THEORY":"SGP4","TLE_LINE2":"2 47890  53.0536  41.7911 0002249  37.0401 323.0758 15.42155898 76376","EPHEMERIS_TYPE":"0","CENTER_NAME":"EARTH","PERIAPSIS":"438.216","MEAN_MOTION_DDOT":"0.0000000000000","MEAN_MOTION_DOT":"0.00007487","ECCENTRICITY":"0.00022490","EPOCH":"2022-07-23T20:17:21.159456","SITE":"AFETR","REV_AT_EPOCH":"7637","MEAN_MOTION":"15.42155898","BSTAR":"0.00018135000000","TIME_SYSTEM":"UTC","FILE":"3520602","APOAPSIS":"441.283","REF_FRAME":"TEME"},{"ARG_OF_PERICENTER":"74.0758","RCS_SIZE":"LARGE","NORAD_CAT_ID":"47891","OBJECT_ID":"2021-021AH","INCLINATION":"53.0551","SEMIMAJOR_AXIS":"6925.360","COUNTRY_CODE":"US","GP_ID":"208736855","LAUNCH_DATE":"2021-03-14","ELEMENT_SET_NO":"999","OBJECT_TYPE":"PAYLOAD","CLASSIFICATION_TYPE":"U","DECAY_DATE":null,"OBJECT_NAME":"STARLINK-2351","REF_FRAME":"TEME","APOAPSIS":"548.274","FILE":"3520602","SITE":"AFETR","REV_AT_EPOCH":"7651","EPOCH":"2022-07-23T17:28:34.231872","BSTAR":"0.00011831000000","TIME_SYSTEM":"UTC","MEAN_MOTION":"15.06396396","ECCENTRICITY":"0.00015160","MEAN_MOTION_DOT":"0.00001481","TLE_LINE2":"2 47891  53.0551 109.6089 0001516  74.0758 286.0398 15.06396396 76510","MEAN_ELEMENT_THEORY":"SGP4","PERIOD":"95.592","MEAN_ANOMALY":"286.0398","TLE_LINE1":"1 47891U 21021AH  22204.72817398  .00001481  00000-0  11831-3 0  9991","RA_OF_ASC_NODE":"109.6089","PERIAPSIS":"546.175","MEAN_MOTION_DDOT":"0.0000000000000","CENTER_NAME":"EARTH","EPHEMERIS_TYPE":"0"},{"GP_ID":"208736606","COUNTRY_CODE":"US","SEMIMAJOR_AXIS":"6893.337","RCS_SIZE":"LARGE","NORAD_CAT_ID":"47892","ARG_OF_PERICENTER":"41.0786","INCLINATION":"53.0547","OBJECT_ID":"2021-021AJ","CLASSIFICATION_TYPE":"U","OBJECT_NAME":"STARLINK-2352","DECAY_DATE":null,"OBJECT_TYPE":"PAYLOAD","ELEMENT_SET_NO":"999","LAUNCH_DATE":"2021-03-14","EPOCH":"2022-07-23T20:58:09.905664","SITE":"AFETR","REV_AT_EPOCH":"7653","MEAN_MOTION":"15.16905237","BSTAR":"0.00048606000000","TIME_SYSTEM":"UTC","APOAPSIS":"516.356","FILE":"3520602","REF_FRAME":"TEME","RA_OF_ASC_NODE":"97.7399","TLE_LINE1":"1 47892U 21021AJ  22204.87372576  .00009395  00000-0  48606-3 0  9994","MEAN_ANOMALY":"319.0334","PERIOD":"94.930","MEAN_ELEMENT_THEORY":"SGP4","TLE_LINE2":"2 47892  53.0547  97.7399 0001674  41.0786 319.0334 15.16905237 76537","EPHEMERIS_TYPE":"0","CENTER_NAME":"EARTH","MEAN_MOTION_DDOT":"0.0000000000000","PERIAPSIS":"514.049","MEAN_MOTION_DOT":"0.00009395","ECCENTRICITY":"0.00016740"},{"ELEMENT_SET_NO":"999","OBJECT_TYPE":"PAYLOAD","LAUNCH_DATE":"2021-03-14","CLASSIFICATION_TYPE":"U","OBJECT_NAME":"STARLINK-2354","DECAY_DATE":null,"ARG_OF_PERICENTER":"63.0401","RCS_SIZE":"LARGE","NORAD_CAT_ID":"47894","OBJECT_ID":"2021-021AL","INCLINATION":"53.0549","COUNTRY_CODE":"US","GP_ID":"208735854","SEMIMAJOR_AXIS":"6925.404","ECCENTRICITY":"0.00014230","MEAN_MOTION_DOT":"0.00002364","MEAN_ANOMALY":"297.0733","TLE_LINE1":"1 47894U 21021AL  22204.88393178  .00002364  00000-0  17765-3 0  9999","RA_OF_ASC_NODE":"98.9148","TLE_LINE2":"2 47894  53.0549  98.9148 0001423  63.0401 297.0733 15.06382038 76463","MEAN_ELEMENT_THEORY":"SGP4","PERIOD":"95.593","EPHEMERIS_TYPE":"0","MEAN_MOTION_DDOT":"0.0000000000000","PERIAPSIS":"546.283","CENTER_NAME":"EARTH","FILE":"3520602","APOAPSIS":"548.254","REF_FRAME":"TEME","EPOCH":"2022-07-23T21:12:51.705792","REV_AT_EPOCH":"7646","SITE":"AFETR","MEAN_MOTION":"15.06382038","BSTAR":"0.00017765000000","TIME_SYSTEM":"UTC"}];
